NORAD_CAT_ID,OBJECT_NAME,OBJECT_TYPE,EPOCH,MEAN_MOTION,ECCENTRICITY,INCLINATION,RA_OF_ASC_NODE,ARG_OF_PERICENTER,MEAN_ANOMALY,BSTAR,MEAN_MOTION_DOT,MEAN_MOTION_DDOT,TLE_LINE0,TLE_LINE1,TLE_LINE2,SEMIMAJOR_AXIS,PERIOD,APOGEE,PERIGEE,DECAYED
52639.0,STARLINK-3968,PAYLOAD,2024-07-13 22:52:18,15.08835654,0.0001689,53.2175,89.4008,83.2674,276.851,1.7148e-05,-1.5e-07,0.0,0 STARLINK-3968,1 52639U 22052AT  24195.95299684 -.00000015  00000-0  17148-4 0  9991,2 52639  53.2175  89.4008 0001689  83.2674 276.8510 15.08835654120796,6917.894,95.438,540.927,538.59,0.0
52639.0,STARLINK-3968,PAYLOAD,2024-07-14 02:03:04,15.0884564,0.0001578,53.2172,88.8064,79.4259,280.6911,0.00023034,3.38e-05,0.0,0 STARLINK-3968,1 52639U 22052AT  24196.08547372  .00003380  00000-0  23034-3 0  9993,2 52639  53.2172  88.8064 0001578  79.4259 280.6911 15.08845640120380,6917.863,95.437,540.82,538.637,0.0
52639.0,STARLINK-3968,PAYLOAD,2024-07-14 10:00:00,15.08852616,0.0001543,53.2174,87.3235,86.6224,273.4944,0.00033048,4.977e-05,0.0,0 STARLINK-3968,1 52639U 22052AT  24196.41666983  .00004977  00000-0  33048-3 0  9999,2 52639  53.2174  87.3235 0001543  86.6224 273.4944 15.08852616120860,6917.842,95.437,540.774,538.639,0.0
52639.0,STARLINK-3968,PAYLOAD,2024-07-14 22:43:05,15.08842389,0.0001486,53.2163,84.94,88.1773,271.939,0.00026498,3.932e-05,0.0,0 STARLINK-3968,1 52639U 22052AT  24196.94659436  .00003932  00000-0  26498-3 0  9993,2 52639  53.2163  84.9400 0001486  88.1773 271.9390 15.08842389120940,6917.873,95.437,540.766,538.71,0.0
52639.0,STARLINK-3968,PAYLOAD,2024-07-15 09:50:47,15.08868726,0.0001263,53.2155,82.8582,99.4451,260.6684,0.0014625,0.00023083,0.0,0 STARLINK-3968,1 52639U 22052AT  24197.41026852  .00023083  00000-0  14625-2 0  9993,2 52639  53.2155  82.8582 0001263  99.4451 260.6684 15.08868726120584,6917.793,95.436,540.531,538.784,0.0
52639.0,STARLINK-3968,PAYLOAD,2024-07-15 20:58:29,15.08832967,0.0001483,53.2167,80.78,84.8115,275.3047,0.00067628,0.00010489,0.0,0 STARLINK-3968,1 52639U 22052AT  24197.87395597  .00010489  00000-0  67628-3 0  9996,2 52639  53.2167  80.7800 0001483  84.8115 275.3047 15.08832967120658,6917.902,95.438,540.793,538.741,0.0
52639.0,STARLINK-3968,PAYLOAD,2024-07-15 22:33:52,15.08830064,0.0001167,53.2167,80.4826,80.9287,279.1837,0.00060981,9.428e-05,0.0,0 STARLINK-3968,1 52639U 22052AT  24197.94019610  .00009428  00000-0  60981-3 0  9999,2 52639  53.2167  80.4826 0001167  80.9287 279.1837 15.08830064121093,6917.911,95.438,540.583,538.968,0.0
52639.0,STARLINK-3968,PAYLOAD,2024-07-16 22:24:39,15.08852657,0.0001342,53.2164,76.0197,88.868,271.2466,0.00088401,0.00013814,0.0,0 STARLINK-3968,1 52639U 22052AT  24198.93379554  .00013814  00000-0  88401-3 0  9996,2 52639  53.2164  76.0197 0001342  88.8680 271.2466 15.08852657121241,6917.842,95.437,540.635,538.778,0.0
52639.0,STARLINK-3968,PAYLOAD,2024-07-17 01:35:26,15.08856125,0.0001348,53.2166,75.4243,91.0131,269.1016,0.00085264,0.00013314,0.0,0 STARLINK-3968,1 52639U 22052AT  24199.06627390  .00013314  00000-0  85264-3 0  9994,2 52639  53.2166  75.4243 0001348  91.0131 269.1016 15.08856125120836,6917.831,95.437,540.629,538.764,0.0
52639.0,STARLINK-3968,PAYLOAD,2024-07-17 20:40:03,15.08839645,0.0001786,53.2168,71.8488,122.0824,238.0341,0.00022452,3.287e-05,0.0,0 STARLINK-3968,1 52639U 22052AT  24199.86115520  .00003287  00000-0  22452-3 0  9997,2 52639  53.2168  71.8488 0001786 122.0824 238.0341 15.08839645120956,6917.881,95.438,540.982,538.511,0.0
52639.0,STARLINK-3968,PAYLOAD,2024-07-17 22:15:27,15.08834749,0.0001311,53.2163,71.5539,104.962,255.1517,1.1992e-05,-9.7e-07,0.0,0 STARLINK-3968,1 52639U 22052AT  24199.92739787 -.00000097  00000-0  11992-4 0  9996,2 52639  53.2163  71.5539 0001311 104.9620 255.1517 15.08834749121396,6917.896,95.438,540.668,538.855,0.0
52639.0,STARLINK-3968,PAYLOAD,2024-07-18 22:06:14,15.08838159,0.0001254,53.2168,67.0932,91.7369,268.3767,3.5341e-05,2.75e-06,0.0,0 STARLINK-3968,1 52639U 22052AT  24200.92100083  .00000275  00000-0  35341-4 0  9991,2 52639  53.2168  67.0932 0001254  91.7369 268.3767 15.08838159121546,6917.886,95.438,540.619,538.884,0.0
52639.0,STARLINK-3968,PAYLOAD,2024-07-19 07:38:32,15.08851922,0.000134,53.2184,65.322,117.3858,242.727,0.00010397,1.368e-05,0.0,0 STARLINK-3968,1 52639U 22052AT  24201.31843174  .00001368  00000-0  10397-3 0  9997,2 52639  53.2184  65.3220 0001340 117.3858 242.7270 15.08851922121176,6917.844,95.437,540.636,538.782,0.0
52639.0,STARLINK-3968,PAYLOAD,2024-07-19 20:21:38,15.08830987,0.0001407,53.218,62.9425,106.3545,253.7602,4.693e-05,4.59e-06,0.0,0 STARLINK-3968,1 52639U 22052AT  24201.84836632  .00000459  00000-0  46930-4 0  9999,2 52639  53.2180  62.9425 0001407 106.3545 253.7602 15.08830987121255,6917.908,95.438,540.746,538.8,0.0
52639.0,STARLINK-3968,PAYLOAD,2024-07-19 21:57:01,15.08831738,0.0001318,53.2178,62.6454,101.6542,258.4598,4.7989e-05,4.76e-06,0.0,0 STARLINK-3968,1 52639U 22052AT  24201.91460640  .00000476  00000-0  47989-4 0  9993,2 52639  53.2178  62.6454 0001318 101.6542 258.4598 15.08831738121696,6917.906,95.438,540.682,538.859,0.0
52639.0,STARLINK-3968,PAYLOAD,2024-07-20 07:29:20,15.08844434,0.0001383,53.2187,60.8599,99.416,260.6988,0.0002023,2.934e-05,0.0,0 STARLINK-3968,1 52639U 22052AT  24202.31204040  .00002934  00000-0  20230-3 0  9998,2 52639  53.2187  60.8599 0001383  99.4160 260.6988 15.08844434121323,6917.867,95.437,540.689,538.775,0.0
52639.0,STARLINK-3968,PAYLOAD,2024-07-20 20:12:25,15.08833503,0.0001143,53.2171,58.4786,87.0884,273.0239,-9.1201e-05,-1.739e-05,0.0,0 STARLINK-3968,1 52639U 22052AT  24202.84196756 -.00001739  00000-0 -91201-4 0  9991,2 52639  53.2171  58.4786 0001143  87.0884 273.0239 15.08833503121408,6917.9,95.438,540.556,538.975,0.0
52639.0,STARLINK-3968,PAYLOAD,2024-07-20 21:47:49,15.08836203,0.00013,53.218,58.1796,78.6455,281.4683,3.4401e-05,2.6e-06,0.0,0 STARLINK-3968,1 52639U 22052AT  24202.90820780  .00000260  00000-0  34401-4 0  9994,2 52639  53.2180  58.1796 0001300  78.6455 281.4683 15.08836203121845,6917.892,95.438,540.656,538.858,0.0
52639.0,STARLINK-3968,PAYLOAD,2024-07-20 23:23:12,15.0883819,0.0001388,53.2182,57.8806,73.7539,286.3606,7.5102e-05,9.07e-06,0.0,0 STARLINK-3968,1 52639U 22052AT  24202.97444747  .00000907  00000-0  75102-4 0  9997,2 52639  53.2182  57.8806 0001388  73.7539 286.3606 15.08838190121857,6917.886,95.438,540.711,538.791,0.0
52639.0,STARLINK-3968,PAYLOAD,2024-07-21 20:03:12,15.08842202,0.0001096,53.2169,54.0151,86.9175,273.1942,0.00011821,1.594e-05,0.0,0 STARLINK-3968,1 52639U 22052AT  24203.83556591  .00001594  00000-0  11821-3 0  9994,2 52639  53.2169  54.0151 0001096  86.9175 273.1942 15.08842202121555,6917.874,95.437,540.497,538.98,0.0
52639.0,STARLINK-3968,PAYLOAD,2024-07-21 21:38:36,15.08841476,0.0001323,53.2181,53.7202,84.2741,275.8402,0.00018184,2.607e-05,0.0,0 STARLINK-3968,1 52639U 22052AT  24203.90180734  .00002607  00000-0  18184-3 0  9999,2 52639  53.2181  53.7202 0001323  84.2741 275.8402 15.08841476121995,6917.876,95.437,540.656,538.826,0.0
52639.0,STARLINK-3968,PAYLOAD,2024-07-22 13:32:27,15.08836089,0.0001179,53.2156,50.7436,88.4309,271.6818,0.00018543,2.664e-05,0.0,0 STARLINK-3968,1 52639U 22052AT  24204.56421080  .00002664  00000-0  18543-3 0  9996,2 52639  53.2156  50.7436 0001179  88.4309 271.6818 15.08836089122099,6917.892,95.438,540.573,538.942,0.0
52639.0,STARLINK-3968,PAYLOAD,2024-07-23 13:23:14,15.08846111,0.0001842,53.2166,46.2815,101.8748,258.2451,0.00028462,4.245e-05,0.0,0 STARLINK-3968,1 52639U 22052AT  24205.55781134  .00004245  00000-0  28462-3 0  9993,2 52639  53.2166  46.2815 0001842 101.8748 258.2451 15.08846111122243,6917.862,95.437,541.001,538.452,0.0
52639.0,STARLINK-3968,PAYLOAD,2024-07-24 22:46:21,15.08840451,0.0002092,53.2156,40.0383,91.1744,268.9488,0.0003043,4.558e-05,0.0,0 STARLINK-3968,1 52639U 22052AT  24206.94885572  .00004558  00000-0  30430-3 0  9993,2 52639  53.2156  40.0383 0002092  91.1744 268.9488 15.08840451122024,6917.879,95.438,541.191,538.297,0.0
52639.0,STARLINK-3968,PAYLOAD,2024-07-25 13:04:48,15.08844508,0.0001531,53.2172,37.3613,111.4973,248.6182,0.00013437,1.851e-05,0.0,0 STARLINK-3968,1 52639U 22052AT  24207.54500993  .00001851  00000-0  13437-3 0  9992,2 52639  53.2172  37.3613 0001531 111.4973 248.6182 15.08844508122544,6917.867,95.437,540.791,538.672,0.0
52639.0,STARLINK-3968,PAYLOAD,2024-07-25 22:37:07,15.08840099,0.0001522,53.2184,35.5774,112.013,248.1024,4.8703e-05,4.87e-06,0.0,0 STARLINK-3968,1 52639U 22052AT  24207.94245155  .00000487  00000-0  48703-4 0  9991,2 52639  53.2184  35.5774 0001522 112.0130 248.1024 15.08840099122177,6917.88,95.438,540.798,538.692,0.0
52639.0,STARLINK-3968,PAYLOAD,2024-07-26 20:52:31,15.08850335,0.0001314,53.2197,31.4154,74.039,286.0747,0.00023546,3.462e-05,0.0,0 STARLINK-3968,1 52639U 22052AT  24208.86980484  .00003462  00000-0  23546-3 0  9997,2 52639  53.2197  31.4154 0001314  74.0390 286.0747 15.08850335122742,6917.849,95.437,540.623,538.805,0.0
52639.0,STARLINK-3968,PAYLOAD,2024-07-27 04:49:26,15.08859528,0.0002052,53.2255,29.9309,86.6331,273.4896,0.00030124,4.512e-05,0.0,0 STARLINK-3968,1 52639U 22052AT  24209.20099837  .00004512  00000-0  30124-3 0  9996,2 52639  53.2255  29.9309 0002052  86.6331 273.4896 15.08859528122361,6917.821,95.436,541.105,538.266,0.0
52639.0,STARLINK-3968,PAYLOAD,2024-07-27 20:43:18,15.08829056,0.000188,53.2181,26.955,77.7534,282.3669,-0.00022526,-3.87e-05,0.0,0 STARLINK-3968,1 52639U 22052AT  24209.86341192 -.00003870  00000-0 -22526-3 0  9997,2 52639  53.2181  26.9550 0001880  77.7534 282.3669 15.08829056122896,6917.914,95.438,541.079,538.478,0.0
52639.0,STARLINK-3968,PAYLOAD,2024-07-28 04:40:15,15.08832112,0.0003764,53.2185,25.4688,78.5378,281.6037,-8.6484e-05,-1.665e-05,0.0,0 STARLINK-3968,1 52639U 22052AT  24210.19461943 -.00001665  00000-0 -86484-4 0  9996,2 52639  53.2185  25.4688 0003764  78.5378 281.6037 15.08832112122511,6917.904,95.438,542.373,537.166,0.0
